#cP2017  9 27  0  0  0.00000000      96 ORBIT IGS14 HLM  IGS
## 1968 259200.00000000   900.00000000 58023 0.0000000000000
+   32   G01G02G03G04G05G06G07G08G09G10G11G12G13G14G15G16G17
+        G18G19G20G21G22G23G24G25G26G27G28G29G30G31G32  0  0
+          0  0  0  0  0  0  0  0  0  0  0  0  0  0  0  0  0
+          0  0  0  0  0  0  0  0  0  0  0  0  0  0  0  0  0
+          0  0  0  0  0  0  0  0  0  0  0  0  0  0  0  0  0
++         2  2  2  0  2  2  2  2  2  2  2  2  2  2  2  2  2
++         2  2  2  2  2  2  2  2  2  2  2  2  2  2  2  0  0
++         0  0  0  0  0  0  0  0  0  0  0  0  0  0  0  0  0
++         0  0  0  0  0  0  0  0  0  0  0  0  0  0  0  0  0
++         0  0  0  0  0  0  0  0  0  0  0  0  0  0  0  0  0
%c G  cc GPS ccc cccc cccc cccc cccc ccccc ccccc ccccc ccccc
%c cc cc ccc ccc cccc cccc cccc cccc ccccc ccccc ccccc ccccc
%f  1.2500000  1.025000000  0.00000000000  0.000000000000000
%f  0.0000000  0.000000000  0.00000000000  0.000000000000000
%i    0    0    0    0      0      0      0      0         0
%i    0    0    0    0      0      0      0      0         0
/* RAPID ORBIT COMBINATION FROM WEIGHTED AVERAGE OF:        
/* cod emr esa gfz jpl ngs sio usn whu                      
/* REFERENCED TO IGS TIME (IGST) AND TO WEIGHTED MEAN POLE: 
/* PCV:IGS14_1967 OL/AL:FES2004  NONE     Y  ORB:CMB CLK:CMB
*  2017  9 27  3  0  0.00000000
PG01 -21503.962773 -11933.773648  10245.927944     -2.490120  7  5  6 108       
PG02  12481.109447  21485.239588  10318.693468    320.574364  6  7  6 131       
PG03 -15006.422708  -2745.444309  21725.144234    -63.137597  4  6  4 119       
PG04  -1366.400939 -15642.776534 -21532.431072 999999.999999
PG05   5480.042723  21356.489339 -14751.119204    -28.014031  7  7  5  80       
PG06   -113.559829  18504.915140  19066.180757    400.490727  8  6  4 122       
PG07 -17520.668513   1660.213366 -19824.680058    300.888196  7  9  6 116       
PG08 -17935.542920  -7897.604386 -17925.377794    -74.924226  8  7  8 113       
PG09 -25434.096032   7624.116625   -922.709474    449.119203  2  5  5 120       
PG10  10773.219717 -23421.764330  -6073.641516     74.857236  7  5  5 107       
PG11 -24540.346741  -9989.335056     -7.187338   -717.978455  8  4  4 108       
PG12  12537.967256   7891.117872  21896.571733    371.331849     3  3 110       
PG13  10858.798012  12815.057761 -20679.056278    -91.975361  5  5  5 112       
PG14   7041.202220 -15749.882639  20431.427055    -84.741736  4  7  4  80       
PG15  20815.204407   5472.327954 -15984.625092   -356.163113  3  7  6  57       
PG16  -2629.211507 -21667.151182 -14977.284568     37.012243  8  5  6 100       
PG17 -16306.737792  14172.251779  15709.849610   -154.454457  7  8  2 113       
PG18  14654.751347 -16260.073243 -14327.097939    630.359549  4  7  4 115       
PG19  -8951.640594  14959.147305  19826.539449   -484.205875  8  6  1 103       
PG20  14653.177876   7592.546447 -20965.494130    487.894518  4  4  5 131       
PG21  14979.845052  -6235.676993 -20257.874707   -476.041385  9  8  3  92       
PG22 -13067.870075 -11597.407054  20236.296540   -135.392552  5  6  3 138       
PG23 -25313.814135    154.224625   8985.355810   -217.675025  6  9  6  94       
PG24  21902.479154  13288.161265   7411.238724    -40.169844  3  4  3 115       
PG25  15871.148263  -6165.113142  20171.481025   -462.966946  4  5  8  90       
PG26   2950.935351 -25832.917320  -5177.797010   -414.488867  7  4  3 102       
PG27  -6041.364743 -13771.761684 -21965.292997    330.124653  6  7  5 121       
PG28 -13517.679948  21078.303901  -8229.108366    649.163369  7  7  6 103       
PG29  26195.251769  -3439.692240   2629.126784    558.156822  7  8  3 113       
PG30  -9616.146960  12413.357790 -21400.579786    138.220647  5  8  2 102       
PG31  -1569.789081 -19668.294149  17651.876751    172.649830  6  8  3 100       
PG32  13257.817006 -15769.286761  16757.899496   -505.666992     5  5  99       
*  2017  9 27  3 15  0.00000000
PG01 -22112.621220 -12790.212129   7641.462985     -2.490655  7  5  6 108       
PG02  11398.786436  20843.318596  12703.765086    320.566275  6  7  6 129       
PG03 -14421.860315  -5162.877831  21684.879079    -63.133533  3  5  3 118       
PG04    890.490816 -16465.635626 -20882.152903 999999.999999
PG05   4910.861594  22826.867158 -12554.823315    -28.013024  7  8  5  86       
PG06  -1818.828390  17036.726632  20309.656482    400.493239  8  6  4 115       
PG07 -19027.260603     28.074634 -18513.470319    300.883783  6  8  6 113       
PG08 -15925.203745  -8641.530686 -19406.146725    -74.925856  8  6  7 107       
PG09 -25458.311706   7343.198083   1917.006255    449.124500     6  5 112       
PG10  10819.904683 -22531.906267  -8763.917310     74.865716  6  5  5 104       
PG11 -24298.873135 -10354.334655  -2741.440391   -717.980488  9  4  4 103       
PG12  11782.802854  10274.110742  21341.232569    371.330448     3  4 112       
PG13   8517.920984  13284.238919 -21471.216905    -91.975592  4  5  4 112       
PG14   9232.263321 -16109.036580  19211.544941    -84.742982  5  7  4  62       
PG15  19114.055643   6320.623843 -17688.967553   -356.163437  3  7  5  59       
PG16  -1993.478997 -23113.908654 -12685.336359     37.012146  8  6  6 101       
PG17 -17913.220209  14413.310876  13525.746504   -154.451957  7  7  3 100       
PG18  14572.623497 -14382.510200 -16232.772302    630.360475  3  7  5 109       
PG19 -11161.285201  15293.668737  18441.353187   -484.204142  9  7  2  90       
PG20  14253.652422   9899.521349 -20263.773393    487.895267  4  5  5 134       
PG21  16739.260026  -4555.133137 -19349.283435   -476.038589  8  8  3  93       
PG22 -12526.413134 -13757.089239  19182.659139   -135.403881  5  6  4 135       
PG23 -24305.791082   -397.884779  11451.094577   -217.675355  4  8  6 108       
PG24  22246.629063  13957.131809   4718.716917    -40.170686  4  5  4 118       
PG25  15382.452891  -3819.083541  21120.460213   -462.972732  4  5  8  70       
PG26   3305.837198 -26196.938662  -2365.500963   -414.478812  6  4  2  98       
PG27  -3647.897041 -14488.574716 -22012.973766    330.128948  6  7  5 117       
PG28 -13315.133974  19911.417595 -10848.414055    649.166097  7  6  6 106       
PG29  25786.715748  -3146.926716   5478.501519    558.152876  6  8  3 114       
PG30 -11318.271786  10631.294958 -21540.087788    138.218625  5  8  2 104       
PG31     17.716328 -18273.420191  19195.604704    172.647651  7  9  3 101       
PG32  15037.261528 -16119.330898  14800.683333   -505.671670     5  5  78       
*  2017  9 27  3 30  0.00000000
PG01 -22537.180907 -13415.929090   4906.980941     -2.491184  7  4  6 114       
PG02  10086.474686  20104.244299  14879.320102    320.557723  7  7  6 125       
PG03 -13968.444932  -7581.694618  21271.044037    -63.129477  3  5  2 115       
PG04   3022.676171 -17365.631803 -19874.486564 999999.999999
PG05   4455.881741  24067.206165 -10141.255876    -28.011775  6  8  5  84       
PG06  -3692.604412  15583.917276  21204.102982    400.495806  8  6  4 101       
PG07 -20489.193626  -1409.361557 -16883.216852    300.879171  5  7  6 100       
PG08 -13816.916571  -9544.261924 -20552.584642    -74.926713  8  6  7 104       
PG09 -25197.773926   6951.870832   4723.742697    449.129796     6  6 105       
PG10  10861.092330 -21353.267856 -11302.109081     74.874061  6  6  5  99       
PG11 -23785.362407 -10634.995680  -5428.533919   -717.982726  9  5  5 119       
PG12  11183.117909  12611.243628  20414.271241    371.329336     2  4  78       
PG13   6139.277996  13894.110335 -21897.499097    -91.976042  3  4  4 110       
PG14  11254.699279 -16541.740241  17666.870683    -84.743576  5  8  4  66       
PG15  17296.061539   7321.374203 -19096.953704   -356.163694  4  7  5  88       
PG16  -1506.554571 -24330.214556 -10172.147266     37.012049  8  7  6  93       
PG17 -19259.642682  14665.304107  11111.887725   -154.449725  7  8  3  94       
PG18  14549.775795 -12299.698798 -17845.062353    630.360933  2  7  5 119       
PG19 -13174.870040  15704.152446  16734.119694   -484.202272  9  8  3  81       
PG20  13971.081428  12125.628835 -19218.006590    487.896263  3  5  5 135       
PG21  18472.914117  -3039.957492 -18085.290625   -476.035707  7  7  3  83       
PG22 -12103.603521 -15806.608168  17804.931630   -135.415325  4  6  4 133       
PG23 -23079.750941  -1091.919509  13726.503256   -217.675482  2  8  5 100       
PG24  22382.588823  14417.380299   1946.080906    -40.170871  4  5  4 122       
PG25  15005.710543  -1365.640614  21699.644334   -462.978490  4  4  8 100       
PG26   3589.494215 -26261.641055    487.737364   -414.468784  6  5  3  95       
PG27  -1310.043649 -15330.313097 -21683.773552    330.133255  6  6  5  79       
PG28 -13106.186332  18449.635156 -13275.277582    649.168396  7  6  6 106       
PG29  25090.142974  -2740.772236   8233.468355    558.148619  6  8  4 114       
PG30 -13102.199723   8940.790234 -21308.694742    138.216656  4  8  2 102       
PG31   1789.520755 -16861.052458  20406.881675    172.645134  7  9  3 103       
PG32  16575.429160 -16478.769962  12588.526353   -505.676311     5  5  93       
EOF
